NOAA 1                  
1 04793U 70106A   26087.89879778 -.00000033  00000+0  57798-4 0  9999
2 04793 101.3471 126.1156 0032011 143.4788  28.5803 12.54049502530620
NOAA 2 (ITOS-D)         
1 06235U 72082A   26087.83984887 -.00000022  00000+0  15390-3 0  9998
2 06235 102.0148 105.5141 0003778 327.3665 204.3417 12.53212416444884
NOAA 3                  
1 06920U 73086A   26087.81130917 -.00000018  00000+0  21407-3 0  9990
2 06920 102.2895 100.9762 0006174 272.4342 260.7609 12.40392269371934
NOAA 4                  
1 07529U 74089A   26087.87614370 -.00000023  00000+0  14966-3 0  9994
2 07529 102.0063  99.8133 0008907 352.4234  74.0455 12.53202055349463
NOAA 5                  
1 09057U 76077A   26087.90593620 -.00000018  00000+0  21749-3 0  9990
2 09057 102.2984  73.5160 0010019 125.4636 260.9369 12.37829076244548
TIROS N                 
1 11060U 78096A   26087.77480461  .00000171  00000+0  10093-3 0  9992
2 11060  98.4610 112.4464 0011551 113.6770 246.5621 14.19346668667348
NOAA 6                  
1 11416U 79057A   26087.79017801  .00000325  00000+0  12835-3 0  9998
2 11416  98.5722 117.8259 0010759 132.5425 227.6671 14.35447397439425
NOAA 7                  
1 12553U 81059A   26087.78636971  .00000057  00000+0  49754-4 0  9993
2 12553  98.8023 155.6721 0012253 134.9735 225.2436 14.17777241313350
NOAA 8                  
1 13923U 83022A   26087.79917208  .00000162  00000+0  80341-4 0  9997
2 13923  98.7364 100.6598 0015636 131.1091 229.1443 14.29774111239582
NOAA 9                  
1 15427U 84123A   26087.80286727  .00000110  00000+0  77723-4 0  9991
2 15427  99.1073 112.5503 0014103 214.2604 319.0982 14.17045126132037
NOAA 10                 
1 16969U 86073A   26087.86747721  .00000154  00000+0  78324-4 0  9997
2 16969  98.7017  81.2248 0011167 227.6779 196.4651 14.29151786 57947
NOAA 11                 
1 19531U 88089A   26087.79680450  .00000058  00000+0  51170-4 0  9994
2 19531  98.6125  36.1963 0011270 163.3579 196.7967 14.15825053936103
NOAA 12                 
1 21263U 91032A   26087.89911568  .00000133  00000+0  73135-4 0  9998
2 21263  98.6172  77.6040 0012483 262.6287  97.3475 14.26723594813510
NOAA 13                 
1 22739U 93050A   26087.83082616  .00000119  00000+0  85528-4 0  9999
2 22739  98.6962  35.0471 0009606   5.9590 354.1696 14.13642569682027
NOAA 14                 
1 23455U 94089A   26087.84942071  .00000076  00000+0  61223-4 0  9997
2 23455  98.5053  61.1584 0008725 320.4390  39.6147 14.14659566611846
NOAA 15                 
1 25338U 98030A   26087.83910220  .00000172  00000+0  88189-4 0  9996
2 25338  98.5140 110.6188 0009521 217.6267 142.4249 14.27120119449835
NOAA 16                 
1 26536U 00055A   26087.84651420  .00000120  00000+0  85064-4 0  9994
2 26536  98.4686 106.3499 0010675 165.8970 194.2504 14.13903431612375
