[{"OBJECT_NAME":"NOAA 1","OBJECT_ID":"1970-106A","EPOCH":"2026-03-28T21:34:16.128192","MEAN_MOTION":12.54049502,"ECCENTRICITY":0.0032011,"INCLINATION":101.3471,"RA_OF_ASC_NODE":126.1156,"ARG_OF_PERICENTER":143.4788,"MEAN_ANOMALY":28.5803,"EPHEMERIS_TYPE":0,"CLASSIFICATION_TYPE":"U","NORAD_CAT_ID":4793,"ELEMENT_SET_NO":999,"REV_AT_EPOCH":53062,"BSTAR":5.7798e-5,"MEAN_MOTION_DOT":-3.3e-7,"MEAN_MOTION_DDOT":0},{"OBJECT_NAME":"NOAA 2 (ITOS-D)","OBJECT_ID":"1972-082A","EPOCH":"2026-03-28T20:09:22.942368","MEAN_MOTION":12.53212416,"ECCENTRICITY":0.0003778,"INCLINATION":102.0148,"RA_OF_ASC_NODE":105.5141,"ARG_OF_PERICENTER":327.3665,"MEAN_ANOMALY":204.3417,"EPHEMERIS_TYPE":0,"CLASSIFICATION_TYPE":"U","NORAD_CAT_ID":6235,"ELEMENT_SET_NO":999,"REV_AT_EPOCH":44488,"BSTAR":0.0001539,"MEAN_MOTION_DOT":-2.2e-7,"MEAN_MOTION_DDOT":0},{"OBJECT_NAME":"NOAA 3","OBJECT_ID":"1973-086A","EPOCH":"2026-03-28T19:28:17.112288","MEAN_MOTION":12.40392269,"ECCENTRICITY":0.0006174,"INCLINATION":102.2895,"RA_OF_ASC_NODE":100.9762,"ARG_OF_PERICENTER":272.4342,"MEAN_ANOMALY":260.7609,"EPHEMERIS_TYPE":0,"CLASSIFICATION_TYPE":"U","NORAD_CAT_ID":6920,"ELEMENT_SET_NO":999,"REV_AT_EPOCH":37193,"BSTAR":0.00021407,"MEAN_MOTION_DOT":-1.8e-7,"MEAN_MOTION_DDOT":0},{"OBJECT_NAME":"NOAA 4","OBJECT_ID":"1974-089A","EPOCH":"2026-03-28T21:01:38.815680","MEAN_MOTION":12.53202055,"ECCENTRICITY":0.0008907,"INCLINATION":102.0063,"RA_OF_ASC_NODE":99.8133,"ARG_OF_PERICENTER":352.4234,"MEAN_ANOMALY":74.0455,"EPHEMERIS_TYPE":0,"CLASSIFICATION_TYPE":"U","NORAD_CAT_ID":7529,"ELEMENT_SET_NO":999,"REV_AT_EPOCH":34946,"BSTAR":0.00014966,"MEAN_MOTION_DOT":-2.3e-7,"MEAN_MOTION_DDOT":0},{"OBJECT_NAME":"NOAA 5","OBJECT_ID":"1976-077A","EPOCH":"2026-03-28T21:44:32.887680","MEAN_MOTION":12.37829076,"ECCENTRICITY":0.0010019,"INCLINATION":102.2984,"RA_OF_ASC_NODE":73.516,"ARG_OF_PERICENTER":125.4636,"MEAN_ANOMALY":260.9369,"EPHEMERIS_TYPE":0,"CLASSIFICATION_TYPE":"U","NORAD_CAT_ID":9057,"ELEMENT_SET_NO":999,"REV_AT_EPOCH":24454,"BSTAR":0.00021749,"MEAN_MOTION_DOT":-1.8e-7,"MEAN_MOTION_DDOT":0},{"OBJECT_NAME":"TIROS N","OBJECT_ID":"1978-096A","EPOCH":"2026-03-28T18:35:43.118304","MEAN_MOTION":14.19346668,"ECCENTRICITY":0.0011551,"INCLINATION":98.461,"RA_OF_ASC_NODE":112.4464,"ARG_OF_PERICENTER":113.677,"MEAN_ANOMALY":246.5621,"EPHEMERIS_TYPE":0,"CLASSIFICATION_TYPE":"U","NORAD_CAT_ID":11060,"ELEMENT_SET_NO":999,"REV_AT_EPOCH":66734,"BSTAR":0.00010093,"MEAN_MOTION_DOT":1.71e-6,"MEAN_MOTION_DDOT":0},{"OBJECT_NAME":"NOAA 6","OBJECT_ID":"1979-057A","EPOCH":"2026-03-28T18:57:51.380064","MEAN_MOTION":14.35447397,"ECCENTRICITY":0.0010759,"INCLINATION":98.5722,"RA_OF_ASC_NODE":117.8259,"ARG_OF_PERICENTER":132.5425,"MEAN_ANOMALY":227.6671,"EPHEMERIS_TYPE":0,"CLASSIFICATION_TYPE":"U","NORAD_CAT_ID":11416,"ELEMENT_SET_NO":999,"REV_AT_EPOCH":43942,"BSTAR":0.00012835,"MEAN_MOTION_DOT":3.25e-6,"MEAN_MOTION_DDOT":0},{"OBJECT_NAME":"NOAA 7","OBJECT_ID":"1981-059A","EPOCH":"2026-03-28T18:52:22.342944","MEAN_MOTION":14.17777241,"ECCENTRICITY":0.0012253,"INCLINATION":98.8023,"RA_OF_ASC_NODE":155.6721,"ARG_OF_PERICENTER":134.9735,"MEAN_ANOMALY":225.2436,"EPHEMERIS_TYPE":0,"CLASSIFICATION_TYPE":"U","NORAD_CAT_ID":12553,"ELEMENT_SET_NO":999,"REV_AT_EPOCH":31335,"BSTAR":4.9754e-5,"MEAN_MOTION_DOT":5.7e-7,"MEAN_MOTION_DDOT":0},{"OBJECT_NAME":"NOAA 8","OBJECT_ID":"1983-022A","EPOCH":"2026-03-28T19:10:48.467712","MEAN_MOTION":14.29774111,"ECCENTRICITY":0.0015636,"INCLINATION":98.7364,"RA_OF_ASC_NODE":100.6598,"ARG_OF_PERICENTER":131.1091,"MEAN_ANOMALY":229.1443,"EPHEMERIS_TYPE":0,"CLASSIFICATION_TYPE":"U","NORAD_CAT_ID":13923,"ELEMENT_SET_NO":999,"REV_AT_EPOCH":23958,"BSTAR":8.0341e-5,"MEAN_MOTION_DOT":1.62e-6,"MEAN_MOTION_DDOT":0},{"OBJECT_NAME":"NOAA 9","OBJECT_ID":"1984-123A","EPOCH":"2026-03-28T19:16:07.732128","MEAN_MOTION":14.17045126,"ECCENTRICITY":0.0014103,"INCLINATION":99.1073,"RA_OF_ASC_NODE":112.5503,"ARG_OF_PERICENTER":214.2604,"MEAN_ANOMALY":319.0982,"EPHEMERIS_TYPE":0,"CLASSIFICATION_TYPE":"U","NORAD_CAT_ID":15427,"ELEMENT_SET_NO":999,"REV_AT_EPOCH":13203,"BSTAR":7.7723e-5,"MEAN_MOTION_DOT":1.1e-6,"MEAN_MOTION_DDOT":0},{"OBJECT_NAME":"NOAA 10","OBJECT_ID":"1986-073A","EPOCH":"2026-03-28T20:49:10.030944","MEAN_MOTION":14.29151786,"ECCENTRICITY":0.0011167,"INCLINATION":98.7017,"RA_OF_ASC_NODE":81.2248,"ARG_OF_PERICENTER":227.6779,"MEAN_ANOMALY":196.4651,"EPHEMERIS_TYPE":0,"CLASSIFICATION_TYPE":"U","NORAD_CAT_ID":16969,"ELEMENT_SET_NO":999,"REV_AT_EPOCH":5794,"BSTAR":7.8324e-5,"MEAN_MOTION_DOT":1.54e-6,"MEAN_MOTION_DDOT":0},{"OBJECT_NAME":"NOAA 11","OBJECT_ID":"1988-089A","EPOCH":"2026-03-28T19:07:23.908800","MEAN_MOTION":14.15825053,"ECCENTRICITY":0.001127,"INCLINATION":98.6125,"RA_OF_ASC_NODE":36.1963,"ARG_OF_PERICENTER":163.3579,"MEAN_ANOMALY":196.7967,"EPHEMERIS_TYPE":0,"CLASSIFICATION_TYPE":"U","NORAD_CAT_ID":19531,"ELEMENT_SET_NO":999,"REV_AT_EPOCH":93610,"BSTAR":5.117e-5,"MEAN_MOTION_DOT":5.8e-7,"MEAN_MOTION_DDOT":0},{"OBJECT_NAME":"NOAA 12","OBJECT_ID":"1991-032A","EPOCH":"2026-03-28T21:34:43.594752","MEAN_MOTION":14.26723594,"ECCENTRICITY":0.0012483,"INCLINATION":98.6172,"RA_OF_ASC_NODE":77.604,"ARG_OF_PERICENTER":262.6287,"MEAN_ANOMALY":97.3475,"EPHEMERIS_TYPE":0,"CLASSIFICATION_TYPE":"U","NORAD_CAT_ID":21263,"ELEMENT_SET_NO":999,"REV_AT_EPOCH":81351,"BSTAR":7.3135e-5,"MEAN_MOTION_DOT":1.33e-6,"MEAN_MOTION_DDOT":0},{"OBJECT_NAME":"NOAA 13","OBJECT_ID":"1993-050A","EPOCH":"2026-03-28T19:56:23.380224","MEAN_MOTION":14.13642569,"ECCENTRICITY":0.0009606,"INCLINATION":98.6962,"RA_OF_ASC_NODE":35.0471,"ARG_OF_PERICENTER":5.959,"MEAN_ANOMALY":354.1696,"EPHEMERIS_TYPE":0,"CLASSIFICATION_TYPE":"U","NORAD_CAT_ID":22739,"ELEMENT_SET_NO":999,"REV_AT_EPOCH":68202,"BSTAR":8.5528e-5,"MEAN_MOTION_DOT":1.19e-6,"MEAN_MOTION_DDOT":0},{"OBJECT_NAME":"NOAA 14","OBJECT_ID":"1994-089A","EPOCH":"2026-03-28T20:23:09.949344","MEAN_MOTION":14.14659566,"ECCENTRICITY":0.0008725,"INCLINATION":98.5053,"RA_OF_ASC_NODE":61.1584,"ARG_OF_PERICENTER":320.439,"MEAN_ANOMALY":39.6147,"EPHEMERIS_TYPE":0,"CLASSIFICATION_TYPE":"U","NORAD_CAT_ID":23455,"ELEMENT_SET_NO":999,"REV_AT_EPOCH":61184,"BSTAR":6.1223e-5,"MEAN_MOTION_DOT":7.6e-7,"MEAN_MOTION_DDOT":0},{"OBJECT_NAME":"NOAA 15","OBJECT_ID":"1998-030A","EPOCH":"2026-03-28T20:08:18.430080","MEAN_MOTION":14.27120119,"ECCENTRICITY":0.0009521,"INCLINATION":98.514,"RA_OF_ASC_NODE":110.6188,"ARG_OF_PERICENTER":217.6267,"MEAN_ANOMALY":142.4249,"EPHEMERIS_TYPE":0,"CLASSIFICATION_TYPE":"U","NORAD_CAT_ID":25338,"ELEMENT_SET_NO":999,"REV_AT_EPOCH":44983,"BSTAR":8.8189e-5,"MEAN_MOTION_DOT":1.72e-6,"MEAN_MOTION_DDOT":0},{"OBJECT_NAME":"NOAA 16","OBJECT_ID":"2000-055A","EPOCH":"2026-03-28T20:18:58.826880","MEAN_MOTION":14.13903431,"ECCENTRICITY":0.0010675,"INCLINATION":98.4686,"RA_OF_ASC_NODE":106.3499,"ARG_OF_PERICENTER":165.897,"MEAN_ANOMALY":194.2504,"EPHEMERIS_TYPE":0,"CLASSIFICATION_TYPE":"U","NORAD_CAT_ID":26536,"ELEMENT_SET_NO":999,"REV_AT_EPOCH":61237,"BSTAR":8.5064e-5,"MEAN_MOTION_DOT":1.2e-6,"MEAN_MOTION_DDOT":0}]
